start=new Date('2023-05-20T00:00:00.000Z').valueOf();
sats=[{"PERIOD":"95.438","RA_OF_ASC_NODE":"104.5946","MEAN_MOTION_DDOT":"0.0000000000000","COUNTRY_CODE":"US","MEAN_MOTION":"15.08837651","EPHEMERIS_TYPE":"0","GP_ID":"232161890","TLE_LINE1":"1 53273U 22086AH  23139.89567872  .00000185  00000-0  29732-4 0  9999","ARG_OF_PERICENTER":"89.5591","CENTER_NAME":"EARTH","LAUNCH_DATE":"2022-07-24","EPOCH":"2023-05-19T21:29:46.641408","SEMIMAJOR_AXIS":"6917.888","TLE_LINE2":"2 53273  53.2174 104.5946 0001234  89.5591 270.5542 15.08837651 46481","FILE":"3912278","ECCENTRICITY":"0.00012340","REV_AT_EPOCH":"4648","APOAPSIS":"540.606","MEAN_ANOMALY":"270.5542","REF_FRAME":"TEME","RCS_SIZE":"LARGE","OBJECT_ID":"2022-086AH","OBJECT_NAME":"STARLINK-4051","MEAN_MOTION_DOT":"0.00000185","TIME_SYSTEM":"UTC","PERIAPSIS":"538.899","SITE":"AFETR","CLASSIFICATION_TYPE":"U","ELEMENT_SET_NO":"999","INCLINATION":"53.2174","NORAD_CAT_ID":"53273","DECAY_DATE":null,"MEAN_ELEMENT_THEORY":"SGP4","OBJECT_TYPE":"PAYLOAD","BSTAR":"0.00002973200000"},{"MEAN_ANOMALY":"275.4772","APOAPSIS":"540.562","REV_AT_EPOCH":"4645","ECCENTRICITY":"0.00011910","RCS_SIZE":"LARGE","REF_FRAME":"TEME","TLE_LINE2":"2 53274  53.2168 105.7380 0001191  84.6356 275.4772 15.08842521 46455","FILE":"3912278","CENTER_NAME":"EARTH","ARG_OF_PERICENTER":"84.6356","TLE_LINE1":"1 53274U 22086AJ  23139.64175590  .00001129  00000-0  88996-4 0  9991","GP_ID":"232162612","EPHEMERIS_TYPE":"0","EPOCH":"2023-05-19T15:24:07.709760","LAUNCH_DATE":"2022-07-24","SEMIMAJOR_AXIS":"6917.873","RA_OF_ASC_NODE":"105.7380","PERIOD":"95.437","MEAN_MOTION":"15.08842521","COUNTRY_CODE":"US","MEAN_MOTION_DDOT":"0.0000000000000","NORAD_CAT_ID":"53274","BSTAR":"0.00008899600000","MEAN_ELEMENT_THEORY":"SGP4","DECAY_DATE":null,"OBJECT_TYPE":"PAYLOAD","ELEMENT_SET_NO":"999","INCLINATION":"53.2168","SITE":"AFETR","CLASSIFICATION_TYPE":"U","OBJECT_ID":"2022-086AJ","OBJECT_NAME":"STARLINK-4050","PERIAPSIS":"538.914","TIME_SYSTEM":"UTC","MEAN_MOTION_DOT":"0.00001129"},{"SITE":"AFETR","CLASSIFICATION_TYPE":"U","OBJECT_ID":"2022-086AK","OBJECT_NAME":"STARLINK-4179","MEAN_MOTION_DOT":"0.00000433","PERIAPSIS":"538.911","TIME_SYSTEM":"UTC","NORAD_CAT_ID":"53275","DECAY_DATE":null,"MEAN_ELEMENT_THEORY":"SGP4","OBJECT_TYPE":"PAYLOAD","BSTAR":"0.00004527100000","ELEMENT_SET_NO":"999","INCLINATION":"53.2176","TLE_LINE1":"1 53275U 22086AK  23139.89199830  .00000433  00000-0  45271-4 0  9998","GP_ID":"232161388","EPHEMERIS_TYPE":"0","ARG_OF_PERICENTER":"97.5559","CENTER_NAME":"EARTH","SEMIMAJOR_AXIS":"6917.887","LAUNCH_DATE":"2022-07-24","EPOCH":"2023-05-19T21:24:28.653120","RA_OF_ASC_NODE":"104.6104","PERIOD":"95.438","COUNTRY_CODE":"US","MEAN_MOTION_DDOT":"0.0000000000000","MEAN_MOTION":"15.08837827","ECCENTRICITY":"0.00012160","APOAPSIS":"540.593","MEAN_ANOMALY":"262.5572","REV_AT_EPOCH":"4648","REF_FRAME":"TEME","RCS_SIZE":"LARGE","TLE_LINE2":"2 53275  53.2176 104.6104 0001216  97.5559 262.5572 15.08837827 46484","FILE":"3912278"},{"INCLINATION":"53.2167","ELEMENT_SET_NO":"999","DECAY_DATE":null,"MEAN_ELEMENT_THEORY":"SGP4","OBJECT_TYPE":"PAYLOAD","BSTAR":"0.00015155000000","NORAD_CAT_ID":"53276","MEAN_MOTION_DOT":"0.00002124","TIME_SYSTEM":"UTC","PERIAPSIS":"539.024","OBJECT_ID":"2022-086AL","OBJECT_NAME":"STARLINK-4174","CLASSIFICATION_TYPE":"U","SITE":"AFETR","FILE":"3912278","TLE_LINE2":"2 53276  53.2167 104.5807 0001080  76.1914 283.9198 15.08831522 46488","REF_FRAME":"TEME","RCS_SIZE":"LARGE","ECCENTRICITY":"0.00010800","REV_AT_EPOCH":"4648","MEAN_ANOMALY":"283.9198","APOAPSIS":"540.518","MEAN_MOTION_DDOT":"0.0000000000000","COUNTRY_CODE":"US","MEAN_MOTION":"15.08831522","PERIOD":"95.438","RA_OF_ASC_NODE":"104.5807","LAUNCH_DATE":"2022-07-24","EPOCH":"2023-05-19T21:35:04.190784","SEMIMAJOR_AXIS":"6917.906","GP_ID":"232161139","EPHEMERIS_TYPE":"0","TLE_LINE1":"1 53276U 22086AL  23139.89935406  .00002124  00000-0  15155-3 0  9992","ARG_OF_PERICENTER":"76.1914","CENTER_NAME":"EARTH"},{"TLE_LINE2":"2 53277  53.2165 107.0537 0001303 103.7323 256.3814 15.08832630 46406","FILE":"3912278","ECCENTRICITY":"0.00013030","APOAPSIS":"540.669","MEAN_ANOMALY":"256.3814","REV_AT_EPOCH":"4640","REF_FRAME":"TEME","RCS_SIZE":"LARGE","RA_OF_ASC_NODE":"107.0537","PERIOD":"95.438","COUNTRY_CODE":"US","MEAN_MOTION_DDOT":"0.0000000000000","MEAN_MOTION":"15.08832630","TLE_LINE1":"1 53277U 22086AM  23139.35472615  .00001158  00000-0  90857-4 0  9991","EPHEMERIS_TYPE":"0","GP_ID":"232162390","ARG_OF_PERICENTER":"103.7323","CENTER_NAME":"EARTH","SEMIMAJOR_AXIS":"6917.903","LAUNCH_DATE":"2022-07-24","EPOCH":"2023-05-19T08:30:48.339360","ELEMENT_SET_NO":"999","INCLINATION":"53.2165","NORAD_CAT_ID":"53277","OBJECT_TYPE":"PAYLOAD","DECAY_DATE":null,"MEAN_ELEMENT_THEORY":"SGP4","BSTAR":"0.00009085700000","OBJECT_ID":"2022-086AM","OBJECT_NAME":"STARLINK-4178","MEAN_MOTION_DOT":"0.00001158","PERIAPSIS":"538.867","TIME_SYSTEM":"UTC","SITE":"AFETR","CLASSIFICATION_TYPE":"U"},{"NORAD_CAT_ID":"53278","BSTAR":"0.00005337000000","DECAY_DATE":null,"OBJECT_TYPE":"PAYLOAD","MEAN_ELEMENT_THEORY":"SGP4","ELEMENT_SET_NO":"999","INCLINATION":"53.2170","SITE":"AFETR","CLASSIFICATION_TYPE":"U","OBJECT_ID":"2022-086AN","OBJECT_NAME":"STARLINK-4180","PERIAPSIS":"538.962","TIME_SYSTEM":"UTC","MEAN_MOTION_DOT":"0.00000562","APOAPSIS":"540.518","MEAN_ANOMALY":"268.5611","REV_AT_EPOCH":"4638","ECCENTRICITY":"0.00011240","RCS_SIZE":"LARGE","REF_FRAME":"TEME","TLE_LINE2":"2 53278  53.2170 107.6009 0001124  91.5509 268.5611 15.08841771 46387","FILE":"3912278","CENTER_NAME":"EARTH","ARG_OF_PERICENTER":"91.5509","TLE_LINE1":"1 53278U 22086AN  23139.22591591  .00000562  00000-0  53370-4 0  9990","EPHEMERIS_TYPE":"0","GP_ID":"232162113","EPOCH":"2023-05-19T05:25:19.134624","LAUNCH_DATE":"2022-07-24","SEMIMAJOR_AXIS":"6917.875","RA_OF_ASC_NODE":"107.6009","PERIOD":"95.437","MEAN_MOTION":"15.08841771","COUNTRY_CODE":"US","MEAN_MOTION_DDOT":"0.0000000000000"},{"FILE":"3912278","TLE_LINE2":"2 53280  53.2189  59.9524 0001148  80.0400 280.0722 15.08833985 47101","REF_FRAME":"TEME","RCS_SIZE":"LARGE","ECCENTRICITY":"0.00011480","REV_AT_EPOCH":"4710","APOAPSIS":"540.558","MEAN_ANOMALY":"280.0722","MEAN_MOTION_DDOT":"0.0000000000000","COUNTRY_CODE":"US","MEAN_MOTION":"15.08833985","PERIOD":"95.438","RA_OF_ASC_NODE":"59.9524","LAUNCH_DATE":"2022-07-24","EPOCH":"2023-05-19T17:50:28.212576","SEMIMAJOR_AXIS":"6917.899","GP_ID":"232160889","EPHEMERIS_TYPE":"0","TLE_LINE1":"1 53280U 22086AQ  23139.74338209 -.00000376  00000-0 -55571-5 0  9996","ARG_OF_PERICENTER":"80.0400","CENTER_NAME":"EARTH","INCLINATION":"53.2189","ELEMENT_SET_NO":"999","OBJECT_TYPE":"PAYLOAD","DECAY_DATE":null,"MEAN_ELEMENT_THEORY":"SGP4","BSTAR":"-0.00000555710000","NORAD_CAT_ID":"53280","MEAN_MOTION_DOT":"-0.00000376","TIME_SYSTEM":"UTC","PERIAPSIS":"538.970","OBJECT_NAME":"STARLINK-4169","OBJECT_ID":"2022-086AQ","CLASSIFICATION_TYPE":"U","SITE":"AFETR"},{"ECCENTRICITY":"0.00013780","APOAPSIS":"540.783","MEAN_ANOMALY":"276.4189","REV_AT_EPOCH":"4640","REF_FRAME":"TEME","RCS_SIZE":"LARGE","TLE_LINE2":"2 53281  53.2181 107.0887 0001378  83.6961 276.4189 15.08812420 46406","FILE":"3912278","TLE_LINE1":"1 53281U 22086AR  23139.34368189  .00005945  00000-0  39156-3 0  9997","GP_ID":"232161639","EPHEMERIS_TYPE":"0","CENTER_NAME":"EARTH","ARG_OF_PERICENTER":"83.6961","LAUNCH_DATE":"2022-07-24","EPOCH":"2023-05-19T08:14:54.115296","SEMIMAJOR_AXIS":"6917.965","RA_OF_ASC_NODE":"107.0887","PERIOD":"95.439","COUNTRY_CODE":"US","MEAN_MOTION_DDOT":"0.0000000000000","MEAN_MOTION":"15.08812420","NORAD_CAT_ID":"53281","DECAY_DATE":null,"MEAN_ELEMENT_THEORY":"SGP4","OBJECT_TYPE":"PAYLOAD","BSTAR":"0.00039156000000","ELEMENT_SET_NO":"999","INCLINATION":"53.2181","SITE":"AFETR","CLASSIFICATION_TYPE":"U","OBJECT_ID":"2022-086AR","OBJECT_NAME":"STARLINK-4182","MEAN_MOTION_DOT":"0.00005945","PERIAPSIS":"538.876","TIME_SYSTEM":"UTC"},{"SEMIMAJOR_AXIS":"6917.870","LAUNCH_DATE":"2022-07-24","EPOCH":"2023-05-19T06:50:06.132480","GP_ID":"232161891","EPHEMERIS_TYPE":"0","TLE_LINE1":"1 53282U 22086AS  23139.28479320  .00000995  00000-0  80584-4 0  9993","CENTER_NAME":"EARTH","ARG_OF_PERICENTER":"90.3992","MEAN_MOTION_DDOT":"0.0000000000000","COUNTRY_CODE":"US","MEAN_MOTION":"15.08843266","PERIOD":"95.437","RA_OF_ASC_NODE":"107.3405","REF_FRAME":"TEME","RCS_SIZE":"LARGE","ECCENTRICITY":"0.00011780","REV_AT_EPOCH":"4639","APOAPSIS":"540.550","MEAN_ANOMALY":"269.7135","FILE":"3912278","TLE_LINE2":"2 53282  53.2163 107.3405 0001178  90.3992 269.7135 15.08843266 46399","CLASSIFICATION_TYPE":"U","SITE":"AFETR","MEAN_MOTION_DOT":"0.00000995","TIME_SYSTEM":"UTC","PERIAPSIS":"538.920","OBJECT_NAME":"STARLINK-4164","OBJECT_ID":"2022-086AS","MEAN_ELEMENT_THEORY":"SGP4","DECAY_DATE":null,"OBJECT_TYPE":"PAYLOAD","BSTAR":"0.00008058400000","NORAD_CAT_ID":"53282","INCLINATION":"53.2163","ELEMENT_SET_NO":"999"},{"MEAN_MOTION_DDOT":"0.0000000000000","COUNTRY_CODE":"US","MEAN_MOTION":"15.08839716","PERIOD":"95.438","RA_OF_ASC_NODE":"107.6898","LAUNCH_DATE":"2022-07-24","EPOCH":"2023-05-19T04:58:49.294272","SEMIMAJOR_AXIS":"6917.881","EPHEMERIS_TYPE":"0","GP_ID":"232162613","TLE_LINE1":"1 53283U 22086AT  23139.20751498  .00000746  00000-0  64966-4 0  9995","ARG_OF_PERICENTER":"87.7391","CENTER_NAME":"EARTH","FILE":"3912278","TLE_LINE2":"2 53283  53.2161 107.6898 0001174  87.7391 272.3736 15.08839716 46387","REF_FRAME":"TEME","RCS_SIZE":"LARGE","ECCENTRICITY":"0.00011740","REV_AT_EPOCH":"4638","MEAN_ANOMALY":"272.3736","APOAPSIS":"540.558","MEAN_MOTION_DOT":"0.00000746","TIME_SYSTEM":"UTC","PERIAPSIS":"538.934","OBJECT_NAME":"STARLINK-4175","OBJECT_ID":"2022-086AT","CLASSIFICATION_TYPE":"U","SITE":"AFETR","INCLINATION":"53.2161","ELEMENT_SET_NO":"999","DECAY_DATE":null,"OBJECT_TYPE":"PAYLOAD","MEAN_ELEMENT_THEORY":"SGP4","BSTAR":"0.00006496600000","NORAD_CAT_ID":"53283"}];
